[{"OBJECT_NAME":"GEESAT-4 07","OBJECT_ID":"2025-170G","EPOCH":"2026-03-09T22:24:24.561504","MEAN_MOTION":14.83629867,"ECCENTRICITY":0.00182752,"INCLINATION":49.9909,"RA_OF_ASC_NODE":274.3953,"ARG_OF_PERICENTER":33.3608,"MEAN_ANOMALY":326.8478,"EPHEMERIS_TYPE":0,"CLASSIFICATION_TYPE":"U","NORAD_CAT_ID":65125,"ELEMENT_SET_NO":999,"REV_AT_EPOCH":3169,"BSTAR":0.00036149083,"MEAN_MOTION_DOT":2.793e-5,"MEAN_MOTION_DDOT":0},{"OBJECT_NAME":"CZ-2C R\/B","OBJECT_ID":"2011-030B","EPOCH":"2026-03-09T21:09:37.668672","MEAN_MOTION":14.81223932,"ECCENTRICITY":0.00523791,"INCLINATION":97.8549,"RA_OF_ASC_NODE":26.141,"ARG_OF_PERICENTER":351.4471,"MEAN_ANOMALY":67.3026,"EPHEMERIS_TYPE":0,"CLASSIFICATION_TYPE":"U","NORAD_CAT_ID":37731,"ELEMENT_SET_NO":999,"REV_AT_EPOCH":79012,"BSTAR":0.00028919779,"MEAN_MOTION_DOT":2.251e-5,"MEAN_MOTION_DDOT":0}]
